STARLINK-31527          
1 59018U 24036W   26068.31629496 -.00001743  00000+0 -46739-4 0  9999
2 59018  53.1588  80.0367 0001284  85.6358 274.4789 15.30193496115266
TRANSPORTER-10 OBJECT AD
1 59125U 24043AD  26068.86032889  .00011954  00000+0  36311-3 0  9997
2 59125  97.5470 207.3753 0008984 221.4908 138.5653 15.34189901112026
